[{"OBJECT_NAME":"STARLINK-3564","OBJECT_ID":"2022-041AT","EPOCH":"2026-03-09T09:10:53.283360","MEAN_MOTION":15.08831694,"ECCENTRICITY":7.622e-5,"INCLINATION":53.2205,"RA_OF_ASC_NODE":90.4934,"ARG_OF_PERICENTER":117.999,"MEAN_ANOMALY":242.1079,"EPHEMERIS_TYPE":0,"CLASSIFICATION_TYPE":"U","NORAD_CAT_ID":52302,"ELEMENT_SET_NO":999,"REV_AT_EPOCH":21459,"BSTAR":0.00014227038,"MEAN_MOTION_DOT":1.977e-5,"MEAN_MOTION_DDOT":0},{"OBJECT_NAME":"FENGYUN 1C DEB","OBJECT_ID":"1999-025BBA","EPOCH":"2026-03-08T04:01:46.595424","MEAN_MOTION":14.68382206,"ECCENTRICITY":0.01906782,"INCLINATION":99.0027,"RA_OF_ASC_NODE":196.6188,"ARG_OF_PERICENTER":258.0888,"MEAN_ANOMALY":99.8879,"EPHEMERIS_TYPE":0,"CLASSIFICATION_TYPE":"U","NORAD_CAT_ID":30960,"ELEMENT_SET_NO":999,"REV_AT_EPOCH":99951,"BSTAR":0.0022197351,"MEAN_MOTION_DOT":0.00016894,"MEAN_MOTION_DDOT":0}]
